MEAN_MOTION;ECCENTRICITY;INCLINATION;RA_OF_ASC_NODE;ARG_OF_PERICENTER;MEAN_ANOMALY;BSTAR;MEAN_MOTION_DOT;MEAN_MOTION_DDOT;TYPE
2.00558121;0.0011639;54.5769;194.3107;101.4585;258.6533;0;-4.0E-8;0;Weather
2.00558137;0.0011628;54.5769;194.2907;101.4513;258.6584;0;-9.0E-8;0;Weather
2.00558199;0.0011614;54.5768;194.2508;101.4901;258.6165;0;-1.7E-7;0;Weather
2.00558213;0.0011617;54.5768;194.2508;101.4692;258.6374;0;-1.7E-7;0;Weather
2.00558213;0.0011617;54.5768;194.2508;101.4692;258.6374;0;-1.7E-7;0;Weather
2.00558296;0.0011605;54.5767;194.2109;101.5112;258.5943;0;-2.0E-7;0;Weather
2.00558269;0.0011601;54.5767;194.2109;101.5066;258.5988;0;-2.0E-7;0;Weather
2.00558344;0.0011585;54.5767;194.1909;101.5311;258.5746;0;-1.9E-7;0;Weather
2.0055835;0.0011583;54.5767;194.171;101.525;258.5818;0;-1.8E-7;0;Weather
2.0055841;0.0011568;54.5766;194.151;101.5755;258.5327;0;-1.5E-7;0;Weather
2.0055843;0.0011558;54.5766;194.1311;101.5643;258.546;0;-1.2E-7;0;Weather
2.0055847;0.0011547;54.5766;194.1111;101.5877;258.525;0;-9.0E-8;0;Weather
2.00558594;0.0011513;54.5764;194.0512;101.6622;258.4589;0;1.0E-8;0;Weather
2.00558623;0.0011506;54.5764;194.0513;101.6902;258.4308;0;1.0E-8;0;Weather
2.00558776;0.0011455;54.5762;193.9714;101.7386;258.3911;0;2.0E-8;0;Weather
2.00558776;0.0011455;54.5762;193.9714;101.7386;258.3911;0;2.0E-8;0;Weather
2.00558867;0.0011429;54.5761;193.9315;101.7906;258.341;0;-5.0E-8;0;Weather
2.00558867;0.0011429;54.5761;193.9315;101.7906;258.341;0;-5.0E-8;0;Weather
2.00558867;0.0011429;54.5761;193.9315;101.7906;258.341;0;-5.0E-8;0;Weather
2.00559117;0.0011373;54.5758;193.8318;101.9566;258.1733;0;-3.3E-7;0;Weather
2.00559117;0.0011373;54.5758;193.8318;101.9566;258.1733;0;-3.3E-7;0;Weather
2.00559186;0.001135;54.5758;193.7919;101.9763;258.1519;0;-4.2E-7;0;Weather
2.00559186;0.001135;54.5758;193.7919;101.9763;258.1519;0;-4.2E-7;0;Weather
2.00559335;0.0011308;54.5756;193.7321;102.1132;258.0135;0;-4.7E-7;0;Weather
2.00559388;0.0011291;54.5756;193.6921;102.1231;258.0041;0;-4.3E-7;0;Weather
2.00559388;0.0011291;54.5756;193.6921;102.1231;258.0041;0;-4.3E-7;0;Weather
2.00559388;0.0011291;54.5756;193.6921;102.1231;258.0041;0;-4.3E-7;0;Weather
2.00559509;0.001125;54.5755;193.6324;102.1867;257.9441;0;-3.0E-7;0;Weather
2.00559509;0.001125;54.5755;193.6324;102.1867;257.9441;0;-3.0E-7;0;Weather
2.00559509;0.001125;54.5755;193.6324;102.1867;257.9441;0;-3.0E-7;0;Weather
2.00559509;0.001125;54.5755;193.6324;102.1867;257.9441;0;-3.0E-7;0;Weather
2.00559509;0.001125;54.5755;193.6324;102.1867;257.9441;0;-3.0E-7;0;Weather
2.00559759;0.001116;54.5751;193.4928;102.3559;257.7947;0;1.3E-7;0;Weather
2.00559771;0.0011149;54.5751;193.4728;102.3515;257.8023;0;1.7E-7;0;Weather
2.00559794;0.001113;54.5751;193.4529;102.3939;257.7629;0;2.1E-7;0;Weather
2.00559794;0.001113;54.5751;193.4529;102.3939;257.7629;0;2.1E-7;0;Weather
2.00559794;0.001113;54.5751;193.4529;102.3939;257.7629;0;2.1E-7;0;Weather
2.00559951;0.0011046;54.5749;193.3531;102.4815;257.6844;0;2.5E-7;0;Weather
2.00559951;0.0011046;54.5749;193.3531;102.4815;257.6844;0;2.5E-7;0;Weather
2.00559951;0.0011046;54.5749;193.3531;102.4815;257.6844;0;2.5E-7;0;Weather
2.00559951;0.0011046;54.5749;193.3531;102.4815;257.6844;0;2.5E-7;0;Weather
2.00559951;0.0011046;54.5749;193.3531;102.4815;257.6844;0;2.5E-7;0;Weather
2.00559951;0.0011046;54.5749;193.3531;102.4815;257.6844;0;2.5E-7;0;Weather
2.00560239;0.0010898;54.5746;193.1536;102.5882;257.5656;0;-1.2E-7;0;Weather
2.00560277;0.0010899;54.5746;193.1337;102.5735;257.5798;0;-1.3E-7;0;Weather
2.00560297;0.0010892;54.5746;193.1337;102.6184;257.5348;0;-1.3E-7;0;Weather
2.00560331;0.0010883;54.5746;193.1138;102.6292;257.524;0;-1.3E-7;0;Weather
2.00560343;0.0010867;54.5746;193.094;102.6368;257.517;0;-1.2E-7;0;Weather
2.00560408;0.0010851;54.5746;193.074;102.6619;257.493;0;-9.0E-8;0;Weather
2.00560439;0.0010842;54.5746;193.054;102.6401;257.5166;0;-6.0E-8;0;Weather
2.00560511;0.0010811;54.5745;193.0141;102.6639;257.4975;0;3.0E-8;0;Weather
2.00560553;0.0010796;54.5745;192.9942;102.6826;257.4815;0;7.0E-8;0;Weather
2.00560553;0.0010796;54.5745;192.9942;102.6826;257.4815;0;7.0E-8;0;Weather
2.00560553;0.0010796;54.5745;192.9942;102.6826;257.4815;0;7.0E-8;0;Weather
2.00560854;0.001071;54.5744;192.8745;102.8163;257.3613;0;1.5E-7;0;Weather
2.00560854;0.001071;54.5744;192.8745;102.8163;257.3613;0;1.5E-7;0;Weather
2.00560965;0.0010672;54.5743;192.8147;102.8219;257.3569;0;4.0E-8;0;Weather
2.00560993;0.0010671;54.5743;192.8147;102.8634;257.3154;0;4.0E-8;0;Weather
2.00561053;0.0010656;54.5743;192.7948;102.859;257.3193;0;-1.0E-8;0;Weather
2.00561053;0.0010656;54.5743;192.7948;102.859;257.3193;0;-1.0E-8;0;Weather
2.00561091;0.0010652;54.5742;192.7748;102.897;257.2807;0;-6.0E-8;0;Weather
2.00561114;0.0010646;54.5742;192.7548;102.8669;257.31;0;-1.1E-7;0;Weather
2.00561114;0.0010646;54.5742;192.7548;102.8669;257.31;0;-1.1E-7;0;Weather
2.00561285;0.0010597;54.5742;192.695;102.9701;257.2034;0;-2.3E-7;0;Weather
2.00561285;0.0010597;54.5742;192.695;102.9701;257.2034;0;-2.3E-7;0;Weather
2.00561463;0.0010527;54.5742;192.6153;103.0725;257.0985;0;-2.4E-7;0;Weather
2.00561516;0.0010518;54.5742;192.5754;103.0727;257.0994;0;-1.6E-7;0;Weather
2.00561561;0.0010499;54.5742;192.5555;103.0974;257.0757;0;-1.0E-7;0;Weather
2.00561561;0.0010499;54.5742;192.5555;103.0974;257.0757;0;-1.0E-7;0;Weather
2.00561636;0.001047;54.5742;192.5156;103.1218;257.0545;0;3.0E-8;0;Weather
2.00561693;0.001045;54.5742;192.4957;103.1709;257.0075;0;1.0E-7;0;Weather
2.00561733;0.0010434;54.5741;192.4757;103.1623;257.0184;0;1.7E-7;0;Weather
2.00561746;0.0010441;54.5741;192.4558;103.1457;257.0379;0;2.4E-7;0;Weather
2.00561799;0.0010413;54.5741;192.4358;103.1705;257.0157;0;3.1E-7;0;Weather
2.00561862;0.0010387;54.5741;192.376;103.1921;257.0025;0;4.7E-7;0;Weather
2.00561879;0.0010387;54.5741;192.376;103.2198;256.9748;0;4.7E-7;0;Weather
2.0056191;0.0010371;54.5741;192.356;103.2332;256.9639;0;5.1E-7;0;Weather
2.0056191;0.0010371;54.5741;192.356;103.2332;256.9639;0;5.1E-7;0;Weather
2.00561977;0.0010346;54.5741;192.2962;103.2127;256.9895;0;5.7E-7;0;Weather
2.00562017;0.0010329;54.5741;192.2763;103.2413;256.9616;0;5.7E-7;0;Weather
2.00562017;0.0010329;54.5741;192.2763;103.2413;256.9616;0;5.7E-7;0;Weather
2.00562035;0.0010319;54.5741;192.2562;103.2159;256.9872;0;5.6E-7;0;Weather
2.00562075;0.0010299;54.5741;192.2363;103.2438;256.9587;0;5.4E-7;0;Weather
2.00562088;0.001029;54.5741;192.2163;103.2171;256.9844;0;5.1E-7;0;Weather
2.00562152;0.0010269;54.5742;192.1765;103.2158;256.9822;0;4.3E-7;0;Weather
2.00562201;0.0010252;54.5742;192.1565;103.2284;256.9672;0;3.9E-7;0;Weather
2.0056221;0.0010253;54.5742;192.1365;103.1998;256.9935;0;3.5E-7;0;Weather
2.0056221;0.0010253;54.5742;192.1365;103.1998;256.9935;0;3.5E-7;0;Weather
2.00562275;0.001024;54.5742;192.0966;103.1746;257.014;0;2.8E-7;0;Weather
2.00562275;0.001024;54.5742;192.0966;103.1746;257.014;0;2.8E-7;0;Weather
2.00562404;0.0010203;54.5743;192.0168;103.1923;256.991;0;2.5E-7;0;Weather
2.00562431;0.0010204;54.5743;192.0168;103.1947;256.9887;0;2.5E-7;0;Weather
2.00562431;0.0010204;54.5743;192.0168;103.1947;256.9887;0;2.5E-7;0;Weather
2.00562431;0.0010204;54.5743;192.0168;103.1947;256.9887;0;2.5E-7;0;Weather
2.00562509;0.0010182;54.5744;191.9769;103.2064;256.9777;0;3.0E-7;0;Weather
2.00562509;0.0010182;54.5744;191.9769;103.2064;256.9777;0;3.0E-7;0;Weather
2.00562573;0.0010176;54.5745;191.937;103.1518;257.0352;0;3.9E-7;0;Weather
2.00562651;0.0010162;54.5745;191.8971;103.1802;257.0108;0;4.7E-7;0;Weather
2.00562651;0.0010162;54.5745;191.8971;103.1802;257.0108;0;4.7E-7;0;Weather
2.00562651;0.0010162;54.5745;191.8971;103.1802;257.0108;0;4.7E-7;0;Weather
2.0056289;0.0010124;54.5746;191.7973;103.1392;257.0597;0;5.7E-7;0;Weather
2.0056289;0.0010124;54.5746;191.7973;103.1392;257.0597;0;5.7E-7;0;Weather
2.00563003;0.00101;54.5747;191.7574;103.1841;257.015;0;5.2E-7;0;Weather
2.00563003;0.00101;54.5747;191.7574;103.1841;257.015;0;5.2E-7;0;Weather
2.00563125;0.0010082;54.5747;191.6975;103.1445;257.0517;0;3.8E-7;0;Weather
2.00563148;0.0010083;54.5748;191.6976;103.1902;257.006;0;3.8E-7;0;Weather
2.00563211;0.0010049;54.5748;191.6576;103.1935;256.9989;0;2.7E-7;0;Weather
2.00563211;0.0010049;54.5748;191.6576;103.1935;256.9989;0;2.7E-7;0;Weather
2.00563246;0.001005;54.5748;191.6577;103.2145;256.9779;0;2.7E-7;0;Weather
2.00563315;0.0010034;54.5748;191.6178;103.1789;257.0096;0;1.8E-7;0;Weather
2.00563402;0.0010019;54.5749;191.5978;103.2244;256.9622;0;1.6E-7;0;Weather
2.00563435;0.001002;54.5749;191.5778;103.2531;256.9318;0;1.4E-7;0;Weather
2.00563435;0.001002;54.5749;191.5778;103.2531;256.9318;0;1.4E-7;0;Weather
2.00563512;0.0010005;54.575;191.5379;103.2258;256.9566;0;1.5E-7;0;Weather
2.00563584;0.0009978;54.575;191.5179;103.2445;256.9368;0;1.7E-7;0;Weather
2.00563598;0.0009977;54.575;191.498;103.2145;256.9665;0;2.1E-7;0;Weather
2.00563658;0.0009969;54.5751;191.4781;103.2623;256.9186;0;2.5E-7;0;Weather
2.00563704;0.0009958;54.5751;191.4581;103.2608;256.9205;0;3.1E-7;0;Weather
2.00563759;0.0009948;54.5752;191.4182;103.2045;256.9786;0;4.4E-7;0;Weather
2.00563772;0.0009948;54.5752;191.4182;103.2064;256.9767;0;4.4E-7;0;Weather
2.00563836;0.0009936;54.5753;191.3784;103.1668;257.0194;0;5.9E-7;0;Weather
2.00563836;0.0009936;54.5753;191.3784;103.1668;257.0194;0;5.9E-7;0;Weather
2.00563918;0.0009923;54.5753;191.3384;103.176;257.014;0;7.2E-7;0;Weather
2.00563956;0.0009907;54.5754;191.2985;103.1447;257.0492;0;8.4E-7;0;Weather
2.0056398;0.0009906;54.5754;191.2985;103.1673;257.0266;0;8.4E-7;0;Weather
2.0056398;0.0009906;54.5754;191.2985;103.1673;257.0266;0;8.4E-7;0;Weather
2.0056398;0.0009906;54.5754;191.2985;103.1673;257.0266;0;8.4E-7;0;Weather
2.0056398;0.0009906;54.5754;191.2985;103.1673;257.0266;0;8.4E-7;0;Weather
2.0056413;0.0009872;54.5756;191.1788;103.0839;257.115;0;9.6E-7;0;Weather
2.00564171;0.0009856;54.5756;191.1589;103.0646;257.1332;0;9.4E-7;0;Weather
2.00564201;0.0009843;54.5757;191.1389;103.0342;257.1621;0;9.2E-7;0;Weather
2.00564228;0.0009834;54.5757;191.119;103.0109;257.1833;0;8.9E-7;0;Weather
